{
  "type": "FeatureCollection",
  "name": "resqph-ubelt-pilot-boundary",
  "features": [
    {
      "type": "Feature",
      "properties": {
        "study_area_id": "ubelt-pilot-v1",
        "name": "U-Belt pilot area, City of Manila",
        "status": "project-defined academic prototype boundary",
        "crs": "EPSG:4326",
        "approved_on": "2026-09-22",
        "expanded_for_simulated_sampaloc_recommendations_on": "2026-10-07",
        "live_operational_boundary": false
      },
      "geometry": {
        "type": "Polygon",
        "coordinates": [
          [
            [120.982, 14.596],
            [121.004, 14.596],
            [121.004, 14.621],
            [120.982, 14.621],
            [120.982, 14.596]
          ]
        ]
      }
    }
  ]
}
