{
"type": "FeatureCollection",
"name": "ubelt-v1-preview",
"crs": { "type": "name", "properties": { "name": "urn:ogc:def:crs:OGC:1.3:CRS84" } },
"features": [
{ "type": "Feature", "properties": { "edge_id": "ubelt-v1:10148847773:259425496:0", "from_node": "10148847773", "to_node": "259425496", "length_m": 90.528549617020133, "travel_time_s": 16.295138931063626, "road_class": "residential", "flood_level": "severe", "flood_depth_cm": "120.0", "passability": "impassable", "observed_at": "2026-10-01T00:00:00Z", "source_type": "controlled" }, "geometry": { "type": "LineString", "coordinates": [ [ 121.00364279999998, 14.6123909 ], [ 121.0034267, 14.6123008 ], [ 121.0034126, 14.6122894 ], [ 121.0034126, 14.6122683 ], [ 121.0036128, 14.6117538 ] ] } },
{ "type": "Feature", "properties": { "edge_id": "ubelt-v1:1037130787:68082882:0", "from_node": "1037130787", "to_node": "68082882", "length_m": 89.975741678109728, "travel_time_s": 12.9565068016478, "road_class": "unclassified", "flood_level": "high", "flood_depth_cm": "80.0", "passability": "restricted", "observed_at": "2026-10-01T00:00:00Z", "source_type": "controlled" }, "geometry": { "type": "LineString", "coordinates": [ [ 120.993768300000013, 14.5977574 ], [ 120.9935571, 14.5979657 ], [ 120.993261299999986, 14.5982462 ], [ 120.9931743, 14.5983287 ] ] } },
{ "type": "Feature", "properties": { "edge_id": "ubelt-v1:1037130917:1037130787:0", "from_node": "1037130917", "to_node": "1037130787", "length_m": 7.6900615833679193, "travel_time_s": 1.1073688680049802, "road_class": "unclassified", "flood_level": "moderate", "flood_depth_cm": "35.0", "passability": "restricted", "observed_at": "2026-10-01T00:00:00Z", "source_type": "controlled" }, "geometry": { "type": "LineString", "coordinates": [ [ 120.9938198, 14.5977093 ], [ 120.993768300000013, 14.5977574 ] ] } },
{ "type": "Feature", "properties": { "edge_id": "ubelt-v1:1037131083:1037130787:0", "from_node": "1037131083", "to_node": "1037130787", "length_m": 13.05354901236122, "travel_time_s": 1.8797110577800156, "road_class": "unclassified", "flood_level": "low", "flood_depth_cm": "15.0", "passability": "passable", "observed_at": "2026-10-01T00:00:00Z", "source_type": "controlled" }, "geometry": { "type": "LineString", "coordinates": [ [ 120.9936791, 14.5976776 ], [ 120.993768300000013, 14.5977574 ] ] } },
{ "type": "Feature", "properties": { "edge_id": "ubelt-v1:1037131083:11206903876:0", "from_node": "1037131083", "to_node": "11206903876", "length_m": 8.7129546017103525, "travel_time_s": 1.2546654626462908, "road_class": "unclassified", "flood_level": "none", "flood_depth_cm": null, "passability": "passable", "observed_at": "2026-10-01T00:00:00Z", "source_type": "controlled" }, "geometry": { "type": "LineString", "coordinates": [ [ 120.9936791, 14.5976776 ], [ 120.9937387, 14.5976244 ] ] } },
{ "type": "Feature", "properties": { "edge_id": "ubelt-v1:104969325:79639026:0", "from_node": "104969325", "to_node": "79639026", "length_m": 38.301785143907274, "travel_time_s": 4.5962142172688729, "road_class": "tertiary", "flood_level": "moderate", "flood_depth_cm": "40.0", "passability": "restricted", "observed_at": "2026-10-01T00:00:00Z", "source_type": "controlled" }, "geometry": { "type": "LineString", "coordinates": [ [ 120.9982622, 14.6167606 ], [ 120.998002299999982, 14.6165245 ] ] } },
{ "type": "Feature", "properties": { "edge_id": "ubelt-v1:104970348:104973409:0", "from_node": "104970348", "to_node": "104973409", "length_m": 74.518834965309821, "travel_time_s": 8.9422601958371786, "road_class": "tertiary", "flood_level": "high", "flood_depth_cm": "75.0", "passability": "restricted", "observed_at": "2026-10-01T00:00:00Z", "source_type": "controlled" }, "geometry": { "type": "LineString", "coordinates": [ [ 120.9995679, 14.6128015 ], [ 120.999097300000017, 14.6132949 ] ] } },
{ "type": "Feature", "properties": { "edge_id": "ubelt-v1:104970348:61090370:0", "from_node": "104970348", "to_node": "61090370", "length_m": 91.761774088438926, "travel_time_s": 11.01141289061267, "road_class": "tertiary", "flood_level": "none", "flood_depth_cm": null, "passability": "passable", "observed_at": "2026-10-01T00:00:00Z", "source_type": "controlled" }, "geometry": { "type": "LineString", "coordinates": [ [ 120.9995679, 14.6128015 ], [ 120.9999008, 14.6120383 ] ] } },
{ "type": "Feature", "properties": { "edge_id": "ubelt-v1:104970348:79641494:0", "from_node": "104970348", "to_node": "79641494", "length_m": 87.263386619536561, "travel_time_s": 10.471606394344386, "road_class": "tertiary", "flood_level": "low", "flood_depth_cm": "10.0", "passability": "passable", "observed_at": "2026-10-01T00:00:00Z", "source_type": "controlled" }, "geometry": { "type": "LineString", "coordinates": [ [ 120.9995679, 14.6128015 ], [ 120.9995052, 14.6131495 ], [ 120.999472, 14.6134241 ], [ 120.999459700000017, 14.6134655 ], [ 120.99944090000001, 14.6134916 ], [ 120.9993847, 14.613555 ] ] } },
{ "type": "Feature", "properties": { "edge_id": "ubelt-v1:104970910:130167086:0", "from_node": "104970910", "to_node": "130167086", "length_m": 46.709844981872706, "travel_time_s": 8.4077720967370873, "road_class": "residential", "flood_level": "severe", "flood_depth_cm": "150.0", "passability": "impassable", "observed_at": "2026-10-01T00:00:00Z", "source_type": "controlled" }, "geometry": { "type": "LineString", "coordinates": [ [ 121.0019221, 14.6099152 ], [ 121.0016006, 14.6096321 ] ] } },
{ "type": "Feature", "properties": { "edge_id": "ubelt-v1:104970910:3164350486:0", "from_node": "104970910", "to_node": "3164350486", "length_m": 34.786934870228258, "travel_time_s": 6.261648276641087, "road_class": "residential", "flood_level": "none", "flood_depth_cm": null, "passability": "passable", "observed_at": null, "source_type": "controlled" }, "geometry": { "type": "LineString", "coordinates": [ [ 121.0019221, 14.6099152 ], [ 121.0020041, 14.6099541 ], [ 121.0021937, 14.6100094 ], [ 121.0022262, 14.610018 ] ] } },
{ "type": "Feature", "properties": { "edge_id": "ubelt-v1:104970910:61090938:0", "from_node": "104970910", "to_node": "61090938", "length_m": 129.96980964513489, "travel_time_s": 23.394565736124282, "road_class": "residential", "flood_level": "none", "flood_depth_cm": null, "passability": "passable", "observed_at": null, "source_type": "controlled" }, "geometry": { "type": "LineString", "coordinates": [ [ 121.0019221, 14.6099152 ], [ 121.001889099999985, 14.6100124 ], [ 121.0017535, 14.6104177 ], [ 121.0016353, 14.6107702 ], [ 121.001556500000021, 14.6110052 ], [ 121.0015476, 14.6110316 ] ] } },
{ "type": "Feature", "properties": { "edge_id": "ubelt-v1:104971140:130167662:0", "from_node": "104971140", "to_node": "130167662", "length_m": 131.18764361007487, "travel_time_s": 23.613775849813479, "road_class": "residential", "flood_level": "none", "flood_depth_cm": null, "passability": "passable", "observed_at": null, "source_type": "controlled" }, "geometry": { "type": "LineString", "coordinates": [ [ 121.002276600000016, 14.6098737 ], [ 121.0022926, 14.6098218 ], [ 121.0023243, 14.6097191 ], [ 121.0023869, 14.6095159 ], [ 121.0024217, 14.609372 ], [ 121.002469600000012, 14.6091744 ], [ 121.0024839, 14.6090143 ], [ 121.0024866, 14.6088358 ], [ 121.002451500000021, 14.6087189 ] ] } },
{ "type": "Feature", "properties": { "edge_id": "ubelt-v1:104971140:244130700:0", "from_node": "104971140", "to_node": "244130700", "length_m": 40.107165112124555, "travel_time_s": 7.2192897201824202, "road_class": "residential", "flood_level": "none", "flood_depth_cm": null, "passability": "passable", "observed_at": null, "source_type": "controlled" }, "geometry": { "type": "LineString", "coordinates": [ [ 121.002276600000016, 14.6098737 ], [ 121.0023368, 14.6098947 ], [ 121.002627100000012, 14.6099956 ] ] } },
{ "type": "Feature", "properties": { "edge_id": "ubelt-v1:104971140:3164350486:0", "from_node": "104971140", "to_node": "3164350486", "length_m": 16.867164862320919, "travel_time_s": 3.0360896752177657, "road_class": "residential", "flood_level": "none", "flood_depth_cm": null, "passability": "passable", "observed_at": null, "source_type": "controlled" }, "geometry": { "type": "LineString", "coordinates": [ [ 121.002276600000016, 14.6098737 ], [ 121.002245800000011, 14.609962 ], [ 121.0022262, 14.610018 ] ] } },
{ "type": "Feature", "properties": { "edge_id": "ubelt-v1:104973033:29663299:0", "from_node": "104973033", "to_node": "29663299", "length_m": 38.651608408154829, "travel_time_s": 3.4786447567339347, "road_class": "primary", "flood_level": "none", "flood_depth_cm": null, "passability": "passable", "observed_at": null, "source_type": "controlled" }, "geometry": { "type": "LineString", "coordinates": [ [ 120.9964627, 14.6129263 ], [ 120.9967273, 14.6131621 ] ] } },
{ "type": "Feature", "properties": { "edge_id": "ubelt-v1:104973033:67783053:0", "from_node": "104973033", "to_node": "67783053", "length_m": 12.809304471167813, "travel_time_s": 1.5371165365401376, "road_class": "tertiary", "flood_level": "none", "flood_depth_cm": null, "passability": "passable", "observed_at": null, "source_type": "controlled" }, "geometry": { "type": "LineString", "coordinates": [ [ 120.9964627, 14.6129263 ], [ 120.9963867, 14.6130153 ] ] } },
{ "type": "Feature", "properties": { "edge_id": "ubelt-v1:104973034:104973033:0", "from_node": "104973034", "to_node": "104973033", "length_m": 163.56908470555868, "travel_time_s": 19.628290164667039, "road_class": "tertiary", "flood_level": "none", "flood_depth_cm": null, "passability": "passable", "observed_at": null, "source_type": "controlled" }, "geometry": { "type": "LineString", "coordinates": [ [ 120.997498799999988, 14.6118462 ], [ 120.9969858, 14.6123755 ], [ 120.9965326, 14.6128555 ], [ 120.9965122, 14.6128771 ], [ 120.9964627, 14.6129263 ] ] } },
{ "type": "Feature", "properties": { "edge_id": "ubelt-v1:104973034:104973035:0", "from_node": "104973034", "to_node": "104973035", "length_m": 160.46855716657998, "travel_time_s": 19.256226859989596, "road_class": "tertiary", "flood_level": "none", "flood_depth_cm": null, "passability": "passable", "observed_at": null, "source_type": "controlled" }, "geometry": { "type": "LineString", "coordinates": [ [ 120.997498799999988, 14.6118462 ], [ 120.998514699999987, 14.610786 ] ] } },
{ "type": "Feature", "properties": { "edge_id": "ubelt-v1:104973034:29663298:0", "from_node": "104973034", "to_node": "29663298", "length_m": 39.739492663065235, "travel_time_s": 4.7687391195678277, "road_class": "tertiary", "flood_level": "none", "flood_depth_cm": null, "passability": "passable", "observed_at": null, "source_type": "controlled" }, "geometry": { "type": "LineString", "coordinates": [ [ 120.997498799999988, 14.6118462 ], [ 120.9977733, 14.612086 ] ] } },
{ "type": "Feature", "properties": { "edge_id": "ubelt-v1:104973035:104973034:0", "from_node": "104973035", "to_node": "104973034", "length_m": 160.46855716657998, "travel_time_s": 19.256226859989596, "road_class": "tertiary", "flood_level": "none", "flood_depth_cm": null, "passability": "passable", "observed_at": null, "source_type": "controlled" }, "geometry": { "type": "LineString", "coordinates": [ [ 120.998514699999987, 14.610786 ], [ 120.997498799999988, 14.6118462 ] ] } },
{ "type": "Feature", "properties": { "edge_id": "ubelt-v1:104973035:130167069:0", "from_node": "104973035", "to_node": "130167069", "length_m": 161.26096388445808, "travel_time_s": 19.351315666134969, "road_class": "tertiary", "flood_level": "none", "flood_depth_cm": null, "passability": "passable", "observed_at": null, "source_type": "controlled" }, "geometry": { "type": "LineString", "coordinates": [ [ 120.998514699999987, 14.610786 ], [ 120.9995408, 14.6097253 ] ] } },
{ "type": "Feature", "properties": { "edge_id": "ubelt-v1:104973035:73007247:0", "from_node": "104973035", "to_node": "73007247", "length_m": 42.631302242259423, "travel_time_s": 5.11575626907113, "road_class": "tertiary", "flood_level": "none", "flood_depth_cm": null, "passability": "passable", "observed_at": null, "source_type": "controlled" }, "geometry": { "type": "LineString", "coordinates": [ [ 120.998514699999987, 14.610786 ], [ 120.9984023, 14.6106806 ], [ 120.9983712, 14.6106525 ], [ 120.998334699999987, 14.6106178 ], [ 120.99829560000002, 14.6105835 ], [ 120.998226, 14.6105227 ] ] } },
{ "type": "Feature", "properties": { "edge_id": "ubelt-v1:104973035:9355059160:0", "from_node": "104973035", "to_node": "9355059160", "length_m": 695.62851897758014, "travel_time_s": 41.737711138654802, "road_class": "motorway", "flood_level": "none", "flood_depth_cm": null, "passability": "passable", "observed_at": null, "source_type": "controlled" }, "geometry": { "type": "LineString", "coordinates": [ [ 120.998514699999987, 14.610786 ], [ 120.99849810000002, 14.6107253 ], [ 120.9984928, 14.6106767 ], [ 120.9985035, 14.6106273 ], [ 120.998531, 14.6105858 ], [ 121.000032, 14.6090107 ], [ 121.0007201, 14.6082885 ], [ 121.001282, 14.6076988 ], [ 121.0017268, 14.6072321 ], [ 121.00193, 14.6070209 ], [ 121.002144, 14.6068111 ], [ 121.00234, 14.6066308 ], [ 121.0025862, 14.6064035 ], [ 121.002822199999983, 14.6061791 ] ] } },
{ "type": "Feature", "properties": { "edge_id": "ubelt-v1:104973409:104970348:0", "from_node": "104973409", "to_node": "104970348", "length_m": 74.518834965309821, "travel_time_s": 8.9422601958371786, "road_class": "tertiary", "flood_level": "none", "flood_depth_cm": null, "passability": "passable", "observed_at": null, "source_type": "controlled" }, "geometry": { "type": "LineString", "coordinates": [ [ 120.999097300000017, 14.6132949 ], [ 120.9995679, 14.6128015 ] ] } },
{ "type": "Feature", "properties": { "edge_id": "ubelt-v1:104973409:104973410:0", "from_node": "104973409", "to_node": "104973410", "length_m": 164.66665376980751, "travel_time_s": 19.759998452376898, "road_class": "tertiary", "flood_level": "none", "flood_depth_cm": null, "passability": "passable", "observed_at": null, "source_type": "controlled" }, "geometry": { "type": "LineString", "coordinates": [ [ 120.999097300000017, 14.6132949 ], [ 120.998126, 14.6143272 ], [ 120.9980651, 14.6143921 ] ] } },
{ "type": "Feature", "properties": { "edge_id": "ubelt-v1:104973409:79641494:0", "from_node": "104973409", "to_node": "79641494", "length_m": 42.280756442427354, "travel_time_s": 5.0736907730912817, "road_class": "tertiary", "flood_level": "none", "flood_depth_cm": null, "passability": "passable", "observed_at": null, "source_type": "controlled" }, "geometry": { "type": "LineString", "coordinates": [ [ 120.999097300000017, 14.6132949 ], [ 120.9993847, 14.613555 ] ] } },
{ "type": "Feature", "properties": { "edge_id": "ubelt-v1:104973410:104973409:0", "from_node": "104973410", "to_node": "104973409", "length_m": 164.66665376980751, "travel_time_s": 19.759998452376898, "road_class": "tertiary", "flood_level": "none", "flood_depth_cm": null, "passability": "passable", "observed_at": null, "source_type": "controlled" }, "geometry": { "type": "LineString", "coordinates": [ [ 120.9980651, 14.6143921 ], [ 120.998126, 14.6143272 ], [ 120.999097300000017, 14.6132949 ] ] } },
{ "type": "Feature", "properties": { "edge_id": "ubelt-v1:104973410:43095796:0", "from_node": "104973410", "to_node": "43095796", "length_m": 12.529738529560202, "travel_time_s": 1.5035686235472241, "road_class": "secondary", "flood_level": "none", "flood_depth_cm": null, "passability": "passable", "observed_at": null, "source_type": "controlled" }, "geometry": { "type": "LineString", "coordinates": [ [ 120.9980651, 14.6143921 ], [ 120.997984599999981, 14.6144738 ] ] } },
{ "type": "Feature", "properties": { "edge_id": "ubelt-v1:104973410:79641358:0", "from_node": "104973410", "to_node": "79641358", "length_m": 40.09583913660633, "travel_time_s": 3.6086255222945698, "road_class": "primary", "flood_level": "none", "flood_depth_cm": null, "passability": "passable", "observed_at": null, "source_type": "controlled" }, "geometry": { "type": "LineString", "coordinates": [ [ 120.9980651, 14.6143921 ], [ 120.9981507, 14.6144649 ], [ 120.9981836, 14.6144928 ], [ 120.9983393, 14.6146369 ] ] } }
]
}
